{
  "type": "FeatureCollection",
  "features": [
    {
      "type": "Feature",
      "properties": {
        "norad_id": 26766,
        "name": "INTELSAT 10 (IS-10)",
        "group": "intelsat",
        "lat": -8.538386352511221,
        "lon": -19.66592424207427,
        "alt_km": 36105.253257862416,
        "timestamp": "2025-12-17T09:00:16.812134+00:00",
        "meta_object_name": "INTELSAT 10 (IS-10)",
        "meta_object_id": "2001-019A",
        "meta_epoch": "2025-12-16T15:38:46.684608",
        "meta_mean_motion": 0.99077112,
        "meta_eccentricity": 0.0007682,
        "meta_inclination": 8.6387,
        "meta_ra_of_asc_node": 61.1181,
        "meta_arg_of_pericenter": 227.7006,
        "meta_mean_anomaly": 153.3672,
        "meta_ephemeris_type": 0,
        "meta_classification_type": "U",
        "meta_norad_cat_id": 26766,
        "meta_element_set_no": 999,
        "meta_rev_at_epoch": 4377,
        "meta_bstar": 0,
        "meta_mean_motion_dot": -2.12e-06,
        "meta_mean_motion_ddot": 0,
        "tle_line1": "1 26766U 01019A   25350.65192922 -.00000212  00000+0  00000+0 0  9993",
        "tle_line2": "2 26766   8.6387  61.1181 0007682 227.7006 153.3672  0.99077112 43770"
      },
      "geometry": {
        "type": "Point",
        "coordinates": [
          -19.66592424207427,
          -8.538386352511221
        ]
      }
    },
    {
      "type": "Feature",
      "properties": {
        "norad_id": 26900,
        "name": "INTELSAT 902 (IS-902)",
        "group": "intelsat",
        "lat": 5.6151645072049075,
        "lon": 171.19040380717195,
        "alt_km": 35786.64223012776,
        "timestamp": "2025-12-17T09:00:16.812158+00:00",
        "meta_object_name": "INTELSAT 902 (IS-902)",
        "meta_object_id": "2001-039A",
        "meta_epoch": "2025-12-15T13:09:02.081664",
        "meta_mean_motion": 1.0027087,
        "meta_eccentricity": 0.00045028,
        "meta_inclination": 5.6536,
        "meta_ra_of_asc_node": 74.0372,
        "meta_arg_of_pericenter": 189.6359,
        "meta_mean_anomaly": 327.9329,
        "meta_ephemeris_type": 0,
        "meta_classification_type": "U",
        "meta_norad_cat_id": 26900,
        "meta_element_set_no": 999,
        "meta_rev_at_epoch": 8885,
        "meta_bstar": 0,
        "meta_mean_motion_dot": -2.65e-06,
        "meta_mean_motion_ddot": 0,
        "tle_line1": "1 26900U 01039A   25349.54794076 -.00000265  00000+0  00000+0 0  9997",
        "tle_line2": "2 26900   5.6536  74.0372 0004502 189.6359 327.9329  1.00270870 88858"
      },
      "geometry": {
        "type": "Point",
        "coordinates": [
          171.19040380717195,
          5.6151645072049075
        ]
      }
    },
    {
      "type": "Feature",
      "properties": {
        "norad_id": 27380,
        "name": "INTELSAT 904 (IS-904)",
        "group": "intelsat",
        "lat": 5.677277623810602,
        "lon": -170.03910412384008,
        "alt_km": 35788.934948243455,
        "timestamp": "2025-12-17T09:00:16.812174+00:00",
        "meta_object_name": "INTELSAT 904 (IS-904)",
        "meta_object_id": "2002-007A",
        "meta_epoch": "2025-12-16T02:56:03.383232",
        "meta_mean_motion": 1.00272163,
        "meta_eccentricity": 0.00016118,
        "meta_inclination": 6.4628,
        "meta_ra_of_asc_node": 71.3939,
        "meta_arg_of_pericenter": 240.6691,
        "meta_mean_anomaly": 145.4695,
        "meta_ephemeris_type": 0,
        "meta_classification_type": "U",
        "meta_norad_cat_id": 27380,
        "meta_element_set_no": 999,
        "meta_rev_at_epoch": 4993,
        "meta_bstar": 0,
        "meta_mean_motion_dot": -2.07e-06,
        "meta_mean_motion_ddot": 0,
        "tle_line1": "1 27380U 02007A   25350.12226138 -.00000207  00000+0  00000+0 0  9997",
        "tle_line2": "2 27380   6.4628  71.3939 0001611 240.6691 145.4695  1.00272163 49938"
      },
      "geometry": {
        "type": "Point",
        "coordinates": [
          -170.03910412384008,
          5.677277623810602
        ]
      }
    },
    {
      "type": "Feature",
      "properties": {
        "norad_id": 27426,
        "name": "DIRECTV 5 (TEMPO 1)",
        "group": "intelsat",
        "lat": 2.462495674324988,
        "lon": 111.11430491435863,
        "alt_km": 35799.65719998046,
        "timestamp": "2025-12-17T09:00:16.812188+00:00",
        "meta_object_name": "DIRECTV 5 (TEMPO 1)",
        "meta_object_id": "2002-023A",
        "meta_epoch": "2025-12-16T16:15:29.397312",
        "meta_mean_motion": 1.00272611,
        "meta_eccentricity": 0.000339,
        "meta_inclination": 4.4118,
        "meta_ra_of_asc_node": 77.6074,
        "meta_arg_of_pericenter": 203.8071,
        "meta_mean_anomaly": 297.9045,
        "meta_ephemeris_type": 0,
        "meta_classification_type": "U",
        "meta_norad_cat_id": 27426,
        "meta_element_set_no": 999,
        "meta_rev_at_epoch": 8629,
        "meta_bstar": 0,
        "meta_mean_motion_dot": -3.7e-07,
        "meta_mean_motion_ddot": 0,
        "tle_line1": "1 27426U 02023A   25350.67742358 -.00000037  00000+0  00000+0 0  9994",
        "tle_line2": "2 27426   4.4118  77.6074 0003390 203.8071 297.9045  1.00272611 86299"
      },
      "geometry": {
        "type": "Point",
        "coordinates": [
          111.11430491435863,
          2.462495674324988
        ]
      }
    },
    {
      "type": "Feature",
      "properties": {
        "norad_id": 27438,
        "name": "INTELSAT 905 (IS-905)",
        "group": "intelsat",
        "lat": 1.3495403174155054,
        "lon": 84.09622366406846,
        "alt_km": 35795.96843818359,
        "timestamp": "2025-12-17T09:00:16.812200+00:00",
        "meta_object_name": "INTELSAT 905 (IS-905)",
        "meta_object_id": "2002-027A",
        "meta_epoch": "2025-12-14T04:33:38.635200",
        "meta_mean_motion": 1.00274201,
        "meta_eccentricity": 0.00026501,
        "meta_inclination": 6.2894,
        "meta_ra_of_asc_node": 72.0398,
        "meta_arg_of_pericenter": 202.1249,
        "meta_mean_anomaly": 100.1717,
        "meta_ephemeris_type": 0,
        "meta_classification_type": "U",
        "meta_norad_cat_id": 27438,
        "meta_element_set_no": 999,
        "meta_rev_at_epoch": 4950,
        "meta_bstar": 0,
        "meta_mean_motion_dot": 1.08e-06,
        "meta_mean_motion_ddot": 0,
        "tle_line1": "1 27438U 02027A   25348.19003050  .00000108  00000+0  00000+0 0  9992",
        "tle_line2": "2 27438   6.2894  72.0398 0002650 202.1249 100.1717  1.00274201 49509"
      },
      "geometry": {
        "type": "Point",
        "coordinates": [
          84.09622366406846,
          1.3495403174155054
        ]
      }
    },
    {
      "type": "Feature",
      "properties": {
        "norad_id": 27445,
        "name": "GALAXY 3C (G-3C)",
        "group": "intelsat",
        "lat": 2.37206121037574,
        "lon": 126.39785264434848,
        "alt_km": 35781.90614142349,
        "timestamp": "2025-12-17T09:00:16.812213+00:00",
        "meta_object_name": "GALAXY 3C (G-3C)",
        "meta_object_id": "2002-030A",
        "meta_epoch": "2025-12-16T14:36:52.612992",
        "meta_mean_motion": 1.00271844,
        "meta_eccentricity": 0.00011086,
        "meta_inclination": 3.2733,
        "meta_ra_of_asc_node": 80.4689,
        "meta_arg_of_pericenter": 79.4506,
        "meta_mean_anomaly": 49.9335,
        "meta_ephemeris_type": 0,
        "meta_classification_type": "U",
        "meta_norad_cat_id": 27445,
        "meta_element_set_no": 999,
        "meta_rev_at_epoch": 4466,
        "meta_bstar": 0,
        "meta_mean_motion_dot": -1.31e-06,
        "meta_mean_motion_ddot": 0,
        "tle_line1": "1 27445U 02030A   25350.60894228 -.00000131  00000+0  00000+0 0  9995",
        "tle_line2": "2 27445   3.2733  80.4689 0001108  79.4506  49.9335  1.00271844 44668"
      },
      "geometry": {
        "type": "Point",
        "coordinates": [
          126.39785264434848,
          2.37206121037574
        ]
      }
    },
    {
      "type": "Feature",
      "properties": {
        "norad_id": 27513,
        "name": "INTELSAT 906 (IS-906)",
        "group": "intelsat",
        "lat": -2.714218000839746,
        "lon": -74.64504006630276,
        "alt_km": 35760.59074716837,
        "timestamp": "2025-12-17T09:00:16.812228+00:00",
        "meta_object_name": "INTELSAT 906 (IS-906)",
        "meta_object_id": "2002-041A",
        "meta_epoch": "2025-12-16T19:12:09.472032",
        "meta_mean_motion": 1.00272245,
        "meta_eccentricity": 0.00062612,
        "meta_inclination": 5.3396,
        "meta_ra_of_asc_node": 75.1832,
        "meta_arg_of_pericenter": 195.9652,
        "meta_mean_anomaly": 166.7019,
        "meta_ephemeris_type": 0,
        "meta_classification_type": "U",
        "meta_norad_cat_id": 27513,
        "meta_element_set_no": 999,
        "meta_rev_at_epoch": 8520,
        "meta_bstar": 0,
        "meta_mean_motion_dot": 3.3e-07,
        "meta_mean_motion_ddot": 0,
        "tle_line1": "1 27513U 02041A   25350.80010963  .00000033  00000+0  00000+0 0  9991",
        "tle_line2": "2 27513   5.3396  75.1832 0006261 195.9652 166.7019  1.00272245 85202"
      },
      "geometry": {
        "type": "Point",
        "coordinates": [
          -74.64504006630276,
          -2.714218000839746
        ]
      }
    }
  ]
}